{
  "type": "FeatureCollection",
  "features": [
    {
      "type": "Feature",
      "properties": {
        "norad_id": 66821,
        "name": "STARLINK-35966",
        "group": "last-30-days",
        "lat": 44.65682125013113,
        "lon": -17.0084450756043,
        "alt_km": 385.1665553164985,
        "timestamp": "2025-12-17T23:38:05.625389+00:00",
        "meta_object_name": "STARLINK-35966",
        "meta_object_id": "2025-280A",
        "meta_epoch": "2025-12-17T14:00:03.000384",
        "meta_mean_motion": 15.61729729,
        "meta_eccentricity": 0.00036722,
        "meta_inclination": 70.0058,
        "meta_ra_of_asc_node": 185.1908,
        "meta_arg_of_pericenter": 272.5631,
        "meta_mean_anomaly": 124.1,
        "meta_ephemeris_type": 0,
        "meta_classification_type": "U",
        "meta_norad_cat_id": 66821,
        "meta_element_set_no": 999,
        "meta_rev_at_epoch": 367,
        "meta_bstar": -0.026887215,
        "meta_mean_motion_dot": -0.02044171,
        "meta_mean_motion_ddot": 0,
        "tle_line1": "1 66821U 25280A   25351.58336806 -.02044171  00000+0 -26887-1 0  9997",
        "tle_line2": "2 66821  70.0058 185.1908 0003672 272.5631 124.1000 15.61729729  3674"
      },
      "geometry": {
        "type": "Point",
        "coordinates": [
          -17.0084450756043,
          44.65682125013113
        ]
      }
    },
    {
      "type": "Feature",
      "properties": {
        "norad_id": 66822,
        "name": "STARLINK-35958",
        "group": "last-30-days",
        "lat": 42.966298530990194,
        "lon": -15.747641856627476,
        "alt_km": 385.3600177220851,
        "timestamp": "2025-12-17T23:38:05.625400+00:00",
        "meta_object_name": "STARLINK-35958",
        "meta_object_id": "2025-280B",
        "meta_epoch": "2025-12-17T14:00:03.000384",
        "meta_mean_motion": 15.61727878,
        "meta_eccentricity": 0.00035332,
        "meta_inclination": 70.0058,
        "meta_ra_of_asc_node": 185.1896,
        "meta_arg_of_pericenter": 274.9384,
        "meta_mean_anomaly": 123.6409,
        "meta_ephemeris_type": 0,
        "meta_classification_type": "U",
        "meta_norad_cat_id": 66822,
        "meta_element_set_no": 999,
        "meta_rev_at_epoch": 367,
        "meta_bstar": -0.026841454,
        "meta_mean_motion_dot": -0.0204086,
        "meta_mean_motion_ddot": 0,
        "tle_line1": "1 66822U 25280B   25351.58336806 -.02040860  00000+0 -26841-1 0  9999",
        "tle_line2": "2 66822  70.0058 185.1896 0003533 274.9384 123.6409 15.61727878  3678"
      },
      "geometry": {
        "type": "Point",
        "coordinates": [
          -15.747641856627476,
          42.966298530990194
        ]
      }
    },
    {
      "type": "Feature",
      "properties": {
        "norad_id": 66823,
        "name": "STARLINK-35957",
        "group": "last-30-days",
        "lat": 41.26610368100949,
        "lon": -14.558668983653277,
        "alt_km": 385.64754766536134,
        "timestamp": "2025-12-17T23:38:05.625412+00:00",
        "meta_object_name": "STARLINK-35957",
        "meta_object_id": "2025-280C",
        "meta_epoch": "2025-12-17T14:00:03.000384",
        "meta_mean_motion": 15.6172573,
        "meta_eccentricity": 0.00036188,
        "meta_inclination": 70.0057,
        "meta_ra_of_asc_node": 185.1868,
        "meta_arg_of_pericenter": 275.8619,
        "meta_mean_anomaly": 124.6342,
        "meta_ephemeris_type": 0,
        "meta_classification_type": "U",
        "meta_norad_cat_id": 66823,
        "meta_element_set_no": 999,
        "meta_rev_at_epoch": 367,
        "meta_bstar": -0.026825854,
        "meta_mean_motion_dot": -0.02039756,
        "meta_mean_motion_ddot": 0,
        "tle_line1": "1 66823U 25280C   25351.58336806 -.02039756  00000+0 -26826-1 0  9995",
        "tle_line2": "2 66823  70.0057 185.1868 0003618 275.8619 124.6342 15.61725730  3674"
      },
      "geometry": {
        "type": "Point",
        "coordinates": [
          -14.558668983653277,
          41.26610368100949
        ]
      }
    },
    {
      "type": "Feature",
      "properties": {
        "norad_id": 66824,
        "name": "STARLINK-35896",
        "group": "last-30-days",
        "lat": 39.552800385123405,
        "lon": -13.428668322785258,
        "alt_km": 385.7342822930659,
        "timestamp": "2025-12-17T23:38:05.625422+00:00",
        "meta_object_name": "STARLINK-35896",
        "meta_object_id": "2025-280D",
        "meta_epoch": "2025-12-17T14:00:03.000384",
        "meta_mean_motion": 15.61728842,
        "meta_eccentricity": 0.00034926,
        "meta_inclination": 70.0057,
        "meta_ra_of_asc_node": 185.1847,
        "meta_arg_of_pericenter": 273.748,
        "meta_mean_anomaly": 128.6611,
        "meta_ephemeris_type": 0,
        "meta_classification_type": "U",
        "meta_norad_cat_id": 66824,
        "meta_element_set_no": 999,
        "meta_rev_at_epoch": 367,
        "meta_bstar": -0.026851318,
        "meta_mean_motion_dot": -0.02041545,
        "meta_mean_motion_ddot": 0,
        "tle_line1": "1 66824U 25280D   25351.58336806 -.02041545  00000+0 -26851-1 0  9993",
        "tle_line2": "2 66824  70.0057 185.1847 0003492 273.7480 128.6611 15.61728842  3675"
      },
      "geometry": {
        "type": "Point",
        "coordinates": [
          -13.428668322785258,
          39.552800385123405
        ]
      }
    },
    {
      "type": "Feature",
      "properties": {
        "norad_id": 66825,
        "name": "STARLINK-35476",
        "group": "last-30-days",
        "lat": 37.832265992281734,
        "lon": -12.363462437577882,
        "alt_km": 385.9527226873215,
        "timestamp": "2025-12-17T23:38:05.625432+00:00",
        "meta_object_name": "STARLINK-35476",
        "meta_object_id": "2025-280E",
        "meta_epoch": "2025-12-17T14:00:03.000384",
        "meta_mean_motion": 15.61702517,
        "meta_eccentricity": 0.00037855,
        "meta_inclination": 69.9989,
        "meta_ra_of_asc_node": 185.1811,
        "meta_arg_of_pericenter": 270.357,
        "meta_mean_anomaly": 133.9759,
        "meta_ephemeris_type": 0,
        "meta_classification_type": "U",
        "meta_norad_cat_id": 66825,
        "meta_element_set_no": 999,
        "meta_rev_at_epoch": 352,
        "meta_bstar": -0.026287294,
        "meta_mean_motion_dot": -0.02002379,
        "meta_mean_motion_ddot": 0,
        "tle_line1": "1 66825U 25280E   25351.58336806 -.02002379  00000+0 -26287-1 0  9999",
        "tle_line2": "2 66825  69.9989 185.1811 0003785 270.3570 133.9759 15.61702517  3523"
      },
      "geometry": {
        "type": "Point",
        "coordinates": [
          -12.363462437577882,
          37.832265992281734
        ]
      }
    },
    {
      "type": "Feature",
      "properties": {
        "norad_id": 66826,
        "name": "STARLINK-35898",
        "group": "last-30-days",
        "lat": 36.09582267228917,
        "lon": -11.328313970215742,
        "alt_km": 386.21538331710053,
        "timestamp": "2025-12-17T23:38:05.625442+00:00",
        "meta_object_name": "STARLINK-35898",
        "meta_object_id": "2025-280F",
        "meta_epoch": "2025-12-17T14:00:03.000384",
        "meta_mean_motion": 15.61727599,
        "meta_eccentricity": 0.00033693,
        "meta_inclination": 70.0057,
        "meta_ra_of_asc_node": 185.1796,
        "meta_arg_of_pericenter": 276.5004,
        "meta_mean_anomaly": 129.744,
        "meta_ephemeris_type": 0,
        "meta_classification_type": "U",
        "meta_norad_cat_id": 66826,
        "meta_element_set_no": 999,
        "meta_rev_at_epoch": 367,
        "meta_bstar": -0.026928424,
        "meta_mean_motion_dot": -0.02046468,
        "meta_mean_motion_ddot": 0,
        "tle_line1": "1 66826U 25280F   25351.58336806 -.02046468  00000+0 -26928-1 0  9999",
        "tle_line2": "2 66826  70.0057 185.1796 0003369 276.5004 129.7440 15.61727599  3676"
      },
      "geometry": {
        "type": "Point",
        "coordinates": [
          -11.328313970215742,
          36.09582267228917
        ]
      }
    },
    {
      "type": "Feature",
      "properties": {
        "norad_id": 66827,
        "name": "STARLINK-35959",
        "group": "last-30-days",
        "lat": 34.3560854793993,
        "lon": -10.348052905973946,
        "alt_km": 386.4564750370573,
        "timestamp": "2025-12-17T23:38:05.625452+00:00",
        "meta_object_name": "STARLINK-35959",
        "meta_object_id": "2025-280G",
        "meta_epoch": "2025-12-17T14:00:03.000384",
        "meta_mean_motion": 15.61727881,
        "meta_eccentricity": 0.00033952,
        "meta_inclination": 70.0057,
        "meta_ra_of_asc_node": 185.1773,
        "meta_arg_of_pericenter": 276.3521,
        "meta_mean_anomaly": 131.8078,
        "meta_ephemeris_type": 0,
        "meta_classification_type": "U",
        "meta_norad_cat_id": 66827,
        "meta_element_set_no": 999,
        "meta_rev_at_epoch": 367,
        "meta_bstar": -0.026956539,
        "meta_mean_motion_dot": -0.02048381,
        "meta_mean_motion_ddot": 0,
        "tle_line1": "1 66827U 25280G   25351.58336806 -.02048381  00000+0 -26957-1 0  9998",
        "tle_line2": "2 66827  70.0057 185.1773 0003395 276.3521 131.8078 15.61727881  3678"
      },
      "geometry": {
        "type": "Point",
        "coordinates": [
          -10.348052905973946,
          34.3560854793993
        ]
      }
    }
  ]
}